start=new Date('2022-05-12T00:00:00.000Z').valueOf();
sats=[{"TIME_SYSTEM":"UTC","MEAN_MOTION_DDOT":"0.0000000000000","EPHEMERIS_TYPE":"0","DECAY_DATE":null,"REF_FRAME":"TEME","ECCENTRICITY":"0.00017810","RA_OF_ASC_NODE":"323.9550","REV_AT_EPOCH":"130","RCS_SIZE":"LARGE","PERIAPSIS":"538.578","MEAN_ELEMENT_THEORY":"SGP4","CLASSIFICATION_TYPE":"U","NORAD_CAT_ID":"50823","MEAN_MOTION":"15.08818940","MEAN_ANOMALY":"343.2589","ELEMENT_SET_NO":"999","SITE":"AFETR","TLE_LINE1":"1 50823U 22001W   22131.91667824  .00033033  00000-0  20851-2 0  9995","INCLINATION":"53.2164","BSTAR":"0.00208510000000","ARG_OF_PERICENTER":"41.8003","EPOCH":"2022-05-11T22:00:00.999936","FILE":"3441154","LAUNCH_DATE":"2022-01-06","COUNTRY_CODE":"US","SEMIMAJOR_AXIS":"6917.945","PERIOD":"95.439","OBJECT_TYPE":"PAYLOAD","OBJECT_ID":"2022-001W","TLE_LINE2":"2 50823  53.2164 323.9550 0001781  41.8003 343.2589 15.08818940  1303","CENTER_NAME":"EARTH","MEAN_MOTION_DOT":"0.00033033","APOAPSIS":"541.042","GP_ID":"203310743","OBJECT_NAME":"STARLINK-3334"},{"MEAN_ANOMALY":"181.8531","MEAN_MOTION":"15.08823046","NORAD_CAT_ID":"50824","CLASSIFICATION_TYPE":"U","MEAN_ELEMENT_THEORY":"SGP4","PERIAPSIS":"538.499","RA_OF_ASC_NODE":"323.9748","RCS_SIZE":"LARGE","REV_AT_EPOCH":"130","REF_FRAME":"TEME","ECCENTRICITY":"0.00018770","DECAY_DATE":null,"EPHEMERIS_TYPE":"0","TIME_SYSTEM":"UTC","MEAN_MOTION_DDOT":"0.0000000000000","OBJECT_NAME":"STARLINK-3340","APOAPSIS":"541.096","GP_ID":"203311995","MEAN_MOTION_DOT":"0.00039839","TLE_LINE2":"2 50824  53.2181 323.9748 0001877  43.2276 181.8531 15.08823046  1302","CENTER_NAME":"EARTH","OBJECT_ID":"2022-001X","PERIOD":"95.439","OBJECT_TYPE":"PAYLOAD","FILE":"3441154","LAUNCH_DATE":"2022-01-06","SEMIMAJOR_AXIS":"6917.932","COUNTRY_CODE":"US","ARG_OF_PERICENTER":"43.2276","EPOCH":"2022-05-11T22:00:00.999936","BSTAR":"0.00250830000000","SITE":"AFETR","INCLINATION":"53.2181","TLE_LINE1":"1 50824U 22001X   22131.91667824  .00039839  00000-0  25083-2 0  9998","ELEMENT_SET_NO":"999"},{"REF_FRAME":"TEME","ECCENTRICITY":"0.00017480","DECAY_DATE":null,"EPHEMERIS_TYPE":"0","TIME_SYSTEM":"UTC","MEAN_MOTION_DDOT":"0.0000000000000","MEAN_MOTION":"15.08825322","MEAN_ANOMALY":"138.9219","NORAD_CAT_ID":"50825","CLASSIFICATION_TYPE":"U","MEAN_ELEMENT_THEORY":"SGP4","PERIAPSIS":"538.581","RA_OF_ASC_NODE":"323.9757","RCS_SIZE":"LARGE","REV_AT_EPOCH":"130","FILE":"3441154","LAUNCH_DATE":"2022-01-06","SEMIMAJOR_AXIS":"6917.925","COUNTRY_CODE":"US","ARG_OF_PERICENTER":"46.1522","EPOCH":"2022-05-11T22:00:00.999936","BSTAR":"0.00242110000000","SITE":"AFETR","TLE_LINE1":"1 50825U 22001Y   22131.91667824  .00038439  00000-0  24211-2 0  9996","INCLINATION":"53.2179","ELEMENT_SET_NO":"999","OBJECT_NAME":"STARLINK-3332","APOAPSIS":"541.000","GP_ID":"203311739","MEAN_MOTION_DOT":"0.00038439","CENTER_NAME":"EARTH","TLE_LINE2":"2 50825  53.2179 323.9757 0001748  46.1522 138.9219 15.08825322  1308","OBJECT_ID":"2022-001Y","PERIOD":"95.438","OBJECT_TYPE":"PAYLOAD"},{"MEAN_MOTION_DOT":"0.00038425","OBJECT_ID":"2022-001Z","TLE_LINE2":"2 50826  53.2161 323.9569 0002110  48.7856 256.3022 15.08810546  1302","CENTER_NAME":"EARTH","OBJECT_TYPE":"PAYLOAD","PERIOD":"95.439","OBJECT_NAME":"STARLINK-3337","GP_ID":"203310494","APOAPSIS":"541.295","INCLINATION":"53.2161","TLE_LINE1":"1 50826U 22001Z   22131.91667824  .00038425  00000-0  24212-2 0  9993","SITE":"AFETR","ELEMENT_SET_NO":"999","SEMIMAJOR_AXIS":"6917.970","COUNTRY_CODE":"US","FILE":"3441154","LAUNCH_DATE":"2022-01-06","EPOCH":"2022-05-11T22:00:00.999936","ARG_OF_PERICENTER":"48.7856","BSTAR":"0.00242120000000","MEAN_ELEMENT_THEORY":"SGP4","PERIAPSIS":"538.376","RCS_SIZE":"LARGE","REV_AT_EPOCH":"130","RA_OF_ASC_NODE":"323.9569","MEAN_MOTION":"15.08810546","MEAN_ANOMALY":"256.3022","NORAD_CAT_ID":"50826","CLASSIFICATION_TYPE":"U","MEAN_MOTION_DDOT":"0.0000000000000","TIME_SYSTEM":"UTC","ECCENTRICITY":"0.00021100","REF_FRAME":"TEME","DECAY_DATE":null,"EPHEMERIS_TYPE":"0"},{"NORAD_CAT_ID":"50827","CLASSIFICATION_TYPE":"U","MEAN_ANOMALY":"75.2765","MEAN_MOTION":"15.08819020","RA_OF_ASC_NODE":"323.9759","REV_AT_EPOCH":"130","RCS_SIZE":"LARGE","PERIAPSIS":"538.515","MEAN_ELEMENT_THEORY":"SGP4","EPHEMERIS_TYPE":"0","DECAY_DATE":null,"REF_FRAME":"TEME","ECCENTRICITY":"0.00018710","TIME_SYSTEM":"UTC","MEAN_MOTION_DDOT":"0.0000000000000","APOAPSIS":"541.104","GP_ID":"203311244","OBJECT_NAME":"STARLINK-3329","PERIOD":"95.439","OBJECT_TYPE":"PAYLOAD","OBJECT_ID":"2022-001AA","TLE_LINE2":"2 50827  53.2182 323.9759 0001871  49.7934  75.2765 15.08819020  1306","CENTER_NAME":"EARTH","MEAN_MOTION_DOT":"0.00034183","BSTAR":"0.00215670000000","ARG_OF_PERICENTER":"49.7934","EPOCH":"2022-05-11T22:00:00.999936","FILE":"3441154","LAUNCH_DATE":"2022-01-06","COUNTRY_CODE":"US","SEMIMAJOR_AXIS":"6917.945","ELEMENT_SET_NO":"999","SITE":"AFETR","INCLINATION":"53.2182","TLE_LINE1":"1 50827U 22001AA  22131.91667824  .00034183  00000-0  21567-2 0  9991"},{"OBJECT_TYPE":"PAYLOAD","PERIOD":"95.437","MEAN_MOTION_DOT":"-0.00014586","OBJECT_ID":"2022-001AB","TLE_LINE2":"2 50828  53.2182 323.9763 0001902  48.5205  91.3718 15.08843230  1302","CENTER_NAME":"EARTH","GP_ID":"203311495","APOAPSIS":"541.051","OBJECT_NAME":"STARLINK-3290","ELEMENT_SET_NO":"999","INCLINATION":"53.2182","TLE_LINE1":"1 50828U 22001AB  22131.91667824 -.00014586  00000-0 -90010-3 0  9999","SITE":"AFETR","ARG_OF_PERICENTER":"48.5205","EPOCH":"2022-05-11T22:00:00.999936","BSTAR":"-0.00090010000000","SEMIMAJOR_AXIS":"6917.871","COUNTRY_CODE":"US","FILE":"3441154","LAUNCH_DATE":"2022-01-06","RCS_SIZE":"LARGE","REV_AT_EPOCH":"130","RA_OF_ASC_NODE":"323.9763","PERIAPSIS":"538.420","MEAN_ELEMENT_THEORY":"SGP4","MEAN_ANOMALY":"91.3718","MEAN_MOTION":"15.08843230","NORAD_CAT_ID":"50828","CLASSIFICATION_TYPE":"U","MEAN_MOTION_DDOT":"0.0000000000000","TIME_SYSTEM":"UTC","DECAY_DATE":null,"EPHEMERIS_TYPE":"0","ECCENTRICITY":"0.00019020","REF_FRAME":"TEME"},{"GP_ID":"203312240","APOAPSIS":"540.916","OBJECT_NAME":"STARLINK-3294","OBJECT_TYPE":"PAYLOAD","PERIOD":"95.437","CENTER_NAME":"EARTH","TLE_LINE2":"2 50829  53.2155 323.9708 0001713  52.0789  33.0307 15.08844672  1307","OBJECT_ID":"2022-001AC","MEAN_MOTION_DOT":"-0.00017559","BSTAR":"-0.00108770000000","EPOCH":"2022-05-11T22:00:00.999936","ARG_OF_PERICENTER":"52.0789","COUNTRY_CODE":"US","SEMIMAJOR_AXIS":"6917.866","FILE":"3441154","LAUNCH_DATE":"2022-01-06","ELEMENT_SET_NO":"999","TLE_LINE1":"1 50829U 22001AC  22131.91667824 -.00017559  00000-0 -10877-2 0  9995","INCLINATION":"53.2155","SITE":"AFETR","CLASSIFICATION_TYPE":"U","NORAD_CAT_ID":"50829","MEAN_ANOMALY":"33.0307","MEAN_MOTION":"15.08844672","REV_AT_EPOCH":"130","RCS_SIZE":"LARGE","RA_OF_ASC_NODE":"323.9708","MEAN_ELEMENT_THEORY":"SGP4","PERIAPSIS":"538.546","EPHEMERIS_TYPE":"0","DECAY_DATE":null,"ECCENTRICITY":"0.00017130","REF_FRAME":"TEME","MEAN_MOTION_DDOT":"0.0000000000000","TIME_SYSTEM":"UTC"},{"RA_OF_ASC_NODE":"333.9581","RCS_SIZE":"LARGE","REV_AT_EPOCH":"130","PERIAPSIS":"538.351","MEAN_ELEMENT_THEORY":"SGP4","MEAN_MOTION":"15.08817738","MEAN_ANOMALY":"306.4501","CLASSIFICATION_TYPE":"U","NORAD_CAT_ID":"50830","TIME_SYSTEM":"UTC","MEAN_MOTION_DDOT":"0.0000000000000","DECAY_DATE":null,"EPHEMERIS_TYPE":"0","REF_FRAME":"TEME","ECCENTRICITY":"0.00021140","PERIOD":"95.439","OBJECT_TYPE":"PAYLOAD","MEAN_MOTION_DOT":"0.00021328","CENTER_NAME":"EARTH","TLE_LINE2":"2 50830  53.2190 333.9581 0002114  43.6188 306.4501 15.08817738  1309","OBJECT_ID":"2022-001AD","APOAPSIS":"541.276","GP_ID":"203310995","OBJECT_NAME":"STARLINK-3278","ELEMENT_SET_NO":"999","SITE":"AFETR","INCLINATION":"53.2190","TLE_LINE1":"1 50830U 22001AD  22131.91667824  .00021328  00000-0  13549-2 0  9993","ARG_OF_PERICENTER":"43.6188","EPOCH":"2022-05-11T22:00:00.999936","BSTAR":"0.00135490000000","FILE":"3441154","LAUNCH_DATE":"2022-01-06","SEMIMAJOR_AXIS":"6917.948","COUNTRY_CODE":"US"},{"MEAN_MOTION_DDOT":"0.0000000000000","TIME_SYSTEM":"UTC","ECCENTRICITY":"0.00019760","REF_FRAME":"TEME","DECAY_DATE":null,"EPHEMERIS_TYPE":"0","PERIAPSIS":"538.473","MEAN_ELEMENT_THEORY":"SGP4","RCS_SIZE":"LARGE","REV_AT_EPOCH":"130","RA_OF_ASC_NODE":"323.9530","MEAN_MOTION":"15.08809187","MEAN_ANOMALY":"263.7498","NORAD_CAT_ID":"50831","CLASSIFICATION_TYPE":"U","TLE_LINE1":"1 50831U 22001AE  22131.91667824  .00037461  00000-0  23613-2 0  9992","INCLINATION":"53.2152","SITE":"AFETR","ELEMENT_SET_NO":"999","SEMIMAJOR_AXIS":"6917.975","COUNTRY_CODE":"US","LAUNCH_DATE":"2022-01-06","FILE":"3441154","EPOCH":"2022-05-11T22:00:00.999936","ARG_OF_PERICENTER":"56.1365","BSTAR":"0.00236130000000","MEAN_MOTION_DOT":"0.00037461","TLE_LINE2":"2 50831  53.2152 323.9530 0001976  56.1365 263.7498 15.08809187  1301","CENTER_NAME":"EARTH","OBJECT_ID":"2022-001AE","OBJECT_TYPE":"PAYLOAD","PERIOD":"95.440","OBJECT_NAME":"STARLINK-3299","GP_ID":"203310744","APOAPSIS":"541.207"},{"OBJECT_TYPE":"PAYLOAD","PERIOD":"95.439","MEAN_MOTION_DOT":"0.00021228","TLE_LINE2":"2 50832  53.2191 333.9603 0002323  33.9390 336.1560 15.08816054  1301","CENTER_NAME":"EARTH","OBJECT_ID":"2022-001AF","GP_ID":"203311996","APOAPSIS":"541.426","OBJECT_NAME":"STARLINK-3328","ELEMENT_SET_NO":"999","INCLINATION":"53.2191","TLE_LINE1":"1 50832U 22001AF  22131.91667824  .00021228  00000-0  13487-2 0  9995","SITE":"AFETR","ARG_OF_PERICENTER":"33.9390","EPOCH":"2022-05-11T22:00:00.999936","BSTAR":"0.00134870000000","SEMIMAJOR_AXIS":"6917.954","COUNTRY_CODE":"US","LAUNCH_DATE":"2022-01-06","FILE":"3441154","RCS_SIZE":"LARGE","REV_AT_EPOCH":"130","RA_OF_ASC_NODE":"333.9603","PERIAPSIS":"538.212","MEAN_ELEMENT_THEORY":"SGP4","MEAN_MOTION":"15.08816054","MEAN_ANOMALY":"336.1560","NORAD_CAT_ID":"50832","CLASSIFICATION_TYPE":"U","MEAN_MOTION_DDOT":"0.0000000000000","TIME_SYSTEM":"UTC","DECAY_DATE":null,"EPHEMERIS_TYPE":"0","ECCENTRICITY":"0.00023230","REF_FRAME":"TEME"}];
